[{"OBJECT_NAME":"COSMOS 2451","OBJECT_ID":"2009-036A","EPOCH":"2026-03-09T22:04:44.603616","MEAN_MOTION":12.40868215,"ECCENTRICITY":0.00077502,"INCLINATION":82.492,"RA_OF_ASC_NODE":153.957,"ARG_OF_PERICENTER":72.2145,"MEAN_ANOMALY":287.9779,"EPHEMERIS_TYPE":0,"CLASSIFICATION_TYPE":"U","NORAD_CAT_ID":35498,"ELEMENT_SET_NO":999,"REV_AT_EPOCH":75533,"BSTAR":0.00023043037,"MEAN_MOTION_DOT":4.1e-7,"MEAN_MOTION_DDOT":0},{"OBJECT_NAME":"SL-14 DEB","OBJECT_ID":"1991-068V","EPOCH":"2026-03-09T15:19:27.257088","MEAN_MOTION":12.44743982,"ECCENTRICITY":0.0053931,"INCLINATION":82.7367,"RA_OF_ASC_NODE":28.6334,"ARG_OF_PERICENTER":13.2601,"MEAN_ANOMALY":107.038,"EPHEMERIS_TYPE":0,"CLASSIFICATION_TYPE":"U","NORAD_CAT_ID":26010,"ELEMENT_SET_NO":999,"REV_AT_EPOCH":19152,"BSTAR":0.00086043,"MEAN_MOTION_DOT":1.33e-6,"MEAN_MOTION_DDOT":0}]
